{"type":"Feature","properties":{"name":"California"},"geometry":{"type":"MultiPolygon","coordinates":[[[[-120.2485,33.9993],[-120.23,34.0101],[-120.1673,34.0082],[-120.1404,34.026],[-120.0902,34.0198],[-120.0576,34.0373],[-120.0433,34.0358],[-120.0504,34.0133],[-120.0466,34.0],[-120.0111,33.9799],[-119.9789,33.9831],[-119.9703,33.9444],[-120.0177,33.9364],[-120.0497,33.9146],[-120.0986,33.9079],[-120.1218,33.8957],[-120.179,33.928],[-120.2245,33.9891],[-120.2485,33.9993]]],[[[-119.7898,34.0573],[-119.7555,34.0567],[-119.7126,34.0433],[-119.6865,34.0198],[-119.6377,34.0132],[-119.6122,34.0213],[-119.6043,34.0316],[-119.6092,34.0374],[-119.5932,34.0496],[-119.5667,34.0535],[-119.5206,34.0343],[-119.5424,34.0211],[-119.5471,34.0055],[-119.5605,33.9955],[-119.6628,33.9859],[-119.7212,33.9596],[-119.7581,33.9592],[-119.8734,33.9804],[-119.8849,34.0088],[-119.8763,34.0321],[-119.9233,34.0694],[-119.9129,34.0775],[-119.8573,34.0713],[-119.8078,34.0521],[-119.7898,34.0573]]],[[[-120.4626,34.0426],[-120.4402,34.0369],[-120.4153,34.055],[-120.3909,34.052],[-120.3688,34.0678],[-120.3683,34.0765],[-120.355,34.0593],[-120.3586,34.0502],[-120.3312,34.0491],[-120.3021,34.0236],[-120.3579,34.015],[-120.4094,34.0322],[-120.4274,34.0254],[-120.4541,34.0281],[-120.4653,34.0384],[-120.4626,34.0426]]],[[[-119.5438,33.2803],[-119.5281,33.2849],[-119.4657,33.2592],[-119.4296,33.2282],[-119.476,33.2155],[-119.5459,33.2334],[-119.565,33.2474],[-119.5789,33.2786],[-119.562,33.2711],[-119.5476,33.2803],[-119.5438,33.2803]]],[[[-119.423,34.0044],[-119.4412,34.0141],[-119.3963,34.0059],[-119.3575,34.0159],[-119.3916,34.0025],[-119.4145,34.005],[-119.423,34.0044]]],[[[-118.5245,32.8955],[-118.5511,32.9452],[-118.5735,32.9692],[-118.5869,33.0083],[-118.6066,33.0147],[-118.6055,33.031],[-118.594,33.036],[-118.569,33.0292],[-118.5401,32.9809],[-118.4968,32.9338],[-118.3535,32.822],[-118.3946,32.824],[-118.4256,32.8006],[-118.4963,32.8516],[-118.5246,32.8932],[-118.5245,32.8955]]],[[[-118.5002,33.4496],[-118.4776,33.4484],[-118.4458,33.4289],[-118.3703,33.4093],[-118.3651,33.3884],[-118.3102,33.3358],[-118.3051,33.3103],[-118.3252,33.2991],[-118.3748,33.3201],[-118.44,33.3186],[-118.4654,33.3261],[-118.4888,33.3566],[-118.4785,33.3863],[-118.4887,33.4198],[-118.5159,33.4224],[-118.5374,33.4346],[-118.5634,33.4344],[-118.604,33.4765],[-118.5307,33.4681],[-118.5002,33.4496]]],[[[-122.4187,37.8527],[-122.4463,37.861],[-122.431,37.8722],[-122.4213,37.8699],[-122.4185,37.8527],[-122.4187,37.8527]]],[[[-123.0139,37.7004],[-123.0045,37.7063],[-122.9972,37.6979],[-123.0055,37.6894],[-123.0143,37.6962],[-123.0139,37.7004]]],[[[-122.3785,37.8265],[-122.3699,37.8321],[-122.3588,37.8143],[-122.3627,37.8076],[-122.3727,37.8165],[-122.3785,37.8265]]],[[[-124.0655,41.4647],[-124.0814,41.5112],[-124.082,41.5478],[-124.1011,41.5692],[-124.101,41.6025],[-124.1356,41.6573],[-124.1474,41.718],[-124.1647,41.7401],[-124.1774,41.7458],[-124.195,41.7368],[-124.256,41.783],[-124.2307,41.8187],[-124.2084,41.8882],[-124.2034,41.941],[-124.2116,41.9985],[-123.8215,41.9955],[-123.3476,41.9991],[-123.1549,42.008],[-123.0012,42.003],[-122.3782,42.0095],[-121.0352,41.9933],[-119.9992,41.9945],[-120.001,38.9996],[-118.7466,38.1249],[-117.5009,37.2203],[-116.0936,36.1558],[-114.633,35.0021],[-114.6331,34.87],[-114.5527,34.7669],[-114.4656,34.6923],[-114.4525,34.6535],[-114.3396,34.4514],[-114.1769,34.3493],[-114.1383,34.3032],[-114.1315,34.2604],[-114.1645,34.2517],[-114.2442,34.1796],[-114.3665,34.1186],[-114.4117,34.11],[-114.4334,34.0884],[-114.4383,34.0226],[-114.4999,33.9618],[-114.5184,33.9175],[-114.5234,33.8061],[-114.4942,33.7079],[-114.4965,33.6969],[-114.5303,33.6792],[-114.5406,33.5914],[-114.5357,33.5688],[-114.6229,33.4566],[-114.6271,33.4336],[-114.7212,33.3969],[-114.6721,33.2585],[-114.6794,33.1595],[-114.6968,33.1312],[-114.7078,33.0911],[-114.6751,33.0475],[-114.6239,33.0287],[-114.5898,33.0262],[-114.5717,33.0366],[-114.5236,33.031],[-114.4686,32.9716],[-114.4657,32.8792],[-114.4963,32.8223],[-114.6156,32.7284],[-114.6786,32.7366],[-114.7196,32.7188],[-115.8758,32.6364],[-117.1249,32.5342],[-117.1367,32.6188],[-117.1689,32.672],[-117.1968,32.6889],[-117.2461,32.6694],[-117.2576,32.7261],[-117.255,32.7869],[-117.281,32.8222],[-117.2822,32.8395],[-117.2562,32.8594],[-117.2545,32.9001],[-117.2808,33.0123],[-117.3153,33.0935],[-117.3626,33.1684],[-117.4698,33.2964],[-117.5477,33.3655],[-117.5959,33.3866],[-117.6456,33.4407],[-117.6846,33.4619],[-117.6914,33.454],[-117.7153,33.4606],[-117.7265,33.4834],[-117.7849,33.5415],[-117.8768,33.5923],[-117.9271,33.6055],[-118.0297,33.6764],[-118.0889,33.7298],[-118.1327,33.7532],[-118.1808,33.7631],[-118.1877,33.7492],[-118.1814,33.7174],[-118.2587,33.7037],[-118.3172,33.7128],[-118.3605,33.7368],[-118.4112,33.742],[-118.4284,33.7747],[-118.3943,33.8043],[-118.3921,33.8409],[-118.4606,33.9691],[-118.5195,34.0275],[-118.5692,34.0416],[-118.745,34.0321],[-118.7834,34.0215],[-118.8051,34.0012],[-118.8547,34.0342],[-118.9381,34.0434],[-119.0885,34.0983],[-119.1302,34.1001],[-119.1886,34.139],[-119.2164,34.1461],[-119.257,34.2133],[-119.2786,34.2669],[-119.313,34.2757],[-119.3704,34.3195],[-119.3904,34.3182],[-119.461,34.3741],[-119.537,34.3955],[-119.5595,34.4134],[-119.6169,34.421],[-119.6719,34.4161],[-119.7091,34.3954],[-119.7948,34.4176],[-119.874,34.4088],[-119.9252,34.4339],[-119.9564,34.4353],[-120.0081,34.4604],[-120.0886,34.4602],[-120.1412,34.4734],[-120.2951,34.4706],[-120.3414,34.4588],[-120.4714,34.4478],[-120.4766,34.4751],[-120.5114,34.523],[-120.5813,34.557],[-120.6226,34.554],[-120.6378,34.5662],[-120.6457,34.581],[-120.6402,34.6044],[-120.6004,34.7046],[-120.6374,34.7559],[-120.6103,34.8582],[-120.6393,34.8804],[-120.6473,34.9011],[-120.6708,34.9041],[-120.6299,35.0615],[-120.631,35.1019],[-120.6443,35.1396],[-120.7142,35.176],[-120.7489,35.1778],[-120.7605,35.1597],[-120.856,35.2065],[-120.8968,35.2479],[-120.8627,35.3468],[-120.8661,35.393],[-120.8848,35.4302],[-120.9079,35.4491],[-120.9465,35.4467],[-120.9694,35.4602],[-121.0034,35.4607],[-121.1016,35.5488],[-121.126,35.5931],[-121.1667,35.6354],[-121.251,35.6566],[-121.285,35.6741],[-121.2898,35.6894],[-121.3146,35.7133],[-121.3158,35.7525],[-121.3324,35.7831],[-121.3881,35.8235],[-121.4131,35.8553],[-121.4623,35.8856],[-121.4862,35.9703],[-121.5031,36.0003],[-121.5746,36.0252],[-121.5929,36.0651],[-121.6187,36.0878],[-121.6296,36.1145],[-121.6801,36.1658],[-121.7172,36.1951],[-121.7799,36.2274],[-121.8264,36.2419],[-121.852,36.2778],[-121.8885,36.3028],[-121.8929,36.3404],[-121.9054,36.3583],[-121.9032,36.3936],[-121.9144,36.4043],[-121.9147,36.4259],[-121.9416,36.4856],[-121.9447,36.5219],[-121.9259,36.5252],[-121.9325,36.5599],[-121.9573,36.5645],[-121.9786,36.5805],[-121.9417,36.6181],[-121.9364,36.6367],[-121.9239,36.6346],[-121.8891,36.6018],[-121.8606,36.6111],[-121.832,36.6449],[-121.8145,36.6829],[-121.8056,36.7502],[-121.7883,36.804],[-121.8623,36.9316],[-121.8947,36.9619],[-121.9301,36.9781],[-121.9728,36.9542],[-122.0124,36.9646],[-122.0234,36.9622],[-122.0272,36.9511],[-122.0501,36.9485],[-122.106,36.956],[-122.2062,37.0139],[-122.2849,37.1017],[-122.3061,37.1164],[-122.3371,37.1174],[-122.3378,37.1359],[-122.3598,37.1556],[-122.3671,37.1728],[-122.4051,37.1958],[-122.4191,37.2415],[-122.4009,37.3592],[-122.4437,37.4359],[-122.4521,37.4805],[-122.4724,37.5005],[-122.4993,37.4953],[-122.5167,37.5213],[-122.5172,37.5906],[-122.5014,37.5996],[-122.4941,37.644],[-122.5145,37.7808],[-122.4858,37.7906],[-122.4781,37.8108],[-122.4638,37.8047],[-122.4075,37.8114],[-122.3981,37.8056],[-122.3853,37.7907],[-122.3759,37.735],[-122.3568,37.7295],[-122.3617,37.715],[-122.3932,37.7075],[-122.3876,37.6791],[-122.3743,37.6622],[-122.3756,37.6524],[-122.3874,37.6485],[-122.3861,37.6377],[-122.3553,37.6157],[-122.3733,37.6138],[-122.3785,37.6056],[-122.3602,37.5925],[-122.3177,37.5909],[-122.3059,37.5755],[-122.2627,37.5729],[-122.2143,37.5385],[-122.1966,37.5372],[-122.195,37.5225],[-122.1684,37.5041],[-122.1401,37.5079],[-122.1277,37.5001],[-122.1113,37.5076],[-122.112,37.5289],[-122.147,37.5884],[-122.163,37.6679],[-122.2468,37.7219],[-122.258,37.7396],[-122.2426,37.7537],[-122.3308,37.7838],[-122.3337,37.8098],[-122.3236,37.8232],[-122.3039,37.8301],[-122.31,37.8928],[-122.3345,37.9088],[-122.3859,37.9081],[-122.3905,37.9225],[-122.4137,37.9373],[-122.4301,37.9631],[-122.3998,37.956],[-122.3676,37.9782],[-122.3619,37.99],[-122.3679,38.0125],[-122.3401,38.0037],[-122.3211,38.0129],[-122.3008,38.0109],[-122.2835,38.0227],[-122.2629,38.0446],[-122.273,38.0744],[-122.3146,38.1153],[-122.3964,38.15],[-122.4396,38.1169],[-122.49,38.112],[-122.4838,38.0718],[-122.4978,38.0194],[-122.4628,38.0034],[-122.4484,37.9847],[-122.472,37.9818],[-122.4887,37.9667],[-122.4877,37.9487],[-122.4792,37.9415],[-122.4995,37.9392],[-122.5031,37.9288],[-122.4782,37.9186],[-122.4723,37.9026],[-122.4484,37.8934],[-122.4383,37.881],[-122.4622,37.8689],[-122.4808,37.8734],[-122.4792,37.8254],[-122.5054,37.8221],[-122.549,37.8362],[-122.5615,37.8518],[-122.6565,37.9045],[-122.6822,37.9064],[-122.7026,37.8938],[-122.7273,37.9046],[-122.7369,37.9258],[-122.7832,37.9513],[-122.7974,37.9767],[-122.8214,37.9967],[-122.8821,38.0253],[-122.9568,38.0287],[-122.9818,38.0091],[-122.9744,37.9924],[-123.0241,37.9949],[-123.0115,38.0034],[-122.9924,38.0418],[-122.9491,38.1541],[-122.9536,38.1757],[-122.994,38.2376],[-122.9686,38.2429],[-122.9771,38.2679],[-123.0243,38.3106],[-123.0387,38.3136],[-123.0511,38.3107],[-123.0535,38.2994],[-123.0637,38.3022],[-123.0747,38.3226],[-123.0683,38.3599],[-123.1288,38.4504],[-123.2023,38.4943],[-123.2498,38.511],[-123.3319,38.5655],[-123.3433,38.59],[-123.3719,38.6072],[-123.4418,38.6997],[-123.4613,38.717],[-123.5148,38.742],[-123.5418,38.7768],[-123.6474,38.8455],[-123.6598,38.8725],[-123.7254,38.9174],[-123.7263,38.9364],[-123.7389,38.9541],[-123.7111,38.9773],[-123.6901,39.0312],[-123.7134,39.1084],[-123.775,39.2121],[-123.7774,39.2372],[-123.7879,39.2643],[-123.8038,39.2788],[-123.8088,39.3244],[-123.8221,39.3439],[-123.8263,39.3687],[-123.8147,39.4465],[-123.7665,39.5528],[-123.7874,39.6046],[-123.7823,39.6215],[-123.7927,39.6841],[-123.8082,39.7107],[-123.8295,39.7231],[-123.8517,39.832],[-123.9077,39.863],[-123.93,39.9097],[-123.955,39.9224],[-123.98,39.9625],[-124.0359,40.0133],[-124.08,40.0298],[-124.0807,40.0661],[-124.1105,40.1038],[-124.1879,40.1305],[-124.2149,40.1609],[-124.2965,40.2088],[-124.3634,40.261],[-124.3479,40.3146],[-124.3736,40.3929],[-124.3915,40.407],[-124.4096,40.4381],[-124.3849,40.4898],[-124.3828,40.519],[-124.3294,40.6164],[-124.1767,40.8436],[-124.1371,40.9257],[-124.1122,41.0282],[-124.1254,41.0485],[-124.1536,41.0536],[-124.1591,41.122],[-124.1654,41.1298],[-124.1585,41.143],[-124.1438,41.1447],[-124.107,41.2297],[-124.0631,41.4396],[-124.0655,41.4647]]]]}}